[{"OBJECT_NAME":"STARLINK-32527","OBJECT_ID":"2024-239U","EPOCH":"2026-03-09T12:37:41.939904","MEAN_MOTION":15.30184744,"ECCENTRICITY":0.00011606,"INCLINATION":53.1574,"RA_OF_ASC_NODE":181.554,"ARG_OF_PERICENTER":65.5652,"MEAN_ANOMALY":294.547,"EPHEMERIS_TYPE":0,"CLASSIFICATION_TYPE":"U","NORAD_CAT_ID":62319,"ELEMENT_SET_NO":999,"REV_AT_EPOCH":6954,"BSTAR":0.00063397829,"MEAN_MOTION_DOT":0.00018455,"MEAN_MOTION_DDOT":0},{"OBJECT_NAME":"TANSTAAFL-2","OBJECT_ID":"2024-247B","EPOCH":"2026-03-08T04:58:51.015360","MEAN_MOTION":15.28016845,"ECCENTRICITY":0.00030723,"INCLINATION":44.988,"RA_OF_ASC_NODE":125.0934,"ARG_OF_PERICENTER":298.8909,"MEAN_ANOMALY":61.1666,"EPHEMERIS_TYPE":0,"CLASSIFICATION_TYPE":"U","NORAD_CAT_ID":62378,"ELEMENT_SET_NO":999,"REV_AT_EPOCH":6750,"BSTAR":0.00050871624,"MEAN_MOTION_DOT":0.00013897,"MEAN_MOTION_DDOT":0}]
